KUIPER-00044            
1 64505U 25134F   25212.83335648  .00019194  00000+0  10149-2 0  9997
2 64505  51.8719 147.6293 0011350 256.6052 229.0788 15.15431135  6631
KUIPER-00046            
1 64506U 25134G   25212.83335648 -.00386895  00000+0 -17042-1 0  9993
2 64506  51.8727 146.7222 0008192 265.0582 309.5557 15.23037583  6664
KUIPER-00047            
1 64507U 25134H   25212.30159857  .00043447  00000+0  12879-2 0  9997
2 64507  51.8618 148.8398 0009815 261.7531  98.2341 15.34370264  7056
KUIPER-00048            
1 64508U 25134J   25212.51323696  .00034487  00000+0  96348-3 0  9993
2 64508  51.8757 147.3118 0002779 236.6501 123.4219 15.36377983  7091
KUIPER-00049            
1 64509U 25134K   25212.53594883  .00024127  00000+0  69592-3 0  9995
2 64509  51.8722 147.4451 0006582 243.8692 116.1617 15.35554836  7074
KUIPER-00050            
1 64510U 25134L   25212.54069012  .00031732  00000+0  92421-3 0  9996
2 64510  51.8729 147.4813 0006719 238.1345 121.8987 15.35099005  7096
KUIPER-00051            
1 64511U 25134M   25212.33409983  .00029108  00000+0  83405-3 0  9995
2 64511  51.8732 148.3493 0004866 232.5745 127.4798 15.35666556  7068
KUIPER-00052            
1 64512U 25134N   25212.91668981  .01010043  00000+0  19179-1 0  9999
2 64512  51.8750 144.9559 0004113 261.9020  10.9376 15.44968882  6694
